{
    "links": {
        "self": "http://www.neowsapp.com/rest/v1/neo/3720866?api_key=iIulBulltgU6a56xZRHN4H3l9WmuAYTsLGpBGhQ2"
    },
    "id": "3720866",
    "neo_reference_id": "3720866",
    "name": "(2015 HO182)",
    "designation": "2015 HO182",
    "nasa_jpl_url": "http://ssd.jpl.nasa.gov/sbdb.cgi?sstr=3720866",
    "absolute_magnitude_h": 26.2,
    "estimated_diameter": {
        "kilometers": {
            "estimated_diameter_min": 0.0152951935,
            "estimated_diameter_max": 0.0342010925
        },
        "meters": {
            "estimated_diameter_min": 15.2951935344,
            "estimated_diameter_max": 34.201092472
        },
        "miles": {
            "estimated_diameter_min": 0.0095039897,
            "estimated_diameter_max": 0.021251567
        },
        "feet": {
            "estimated_diameter_min": 50.1810827555,
            "estimated_diameter_max": 112.2083122258
        }
    },
    "is_potentially_hazardous_asteroid": false,
    "close_approach_data": [
        {
            "close_approach_date": "2015-03-25",
            "close_approach_date_full": "2015-Mar-25 03:24",
            "epoch_date_close_approach": 1427253840000,
            "relative_velocity": {
                "kilometers_per_second": "8.8867945623",
                "kilometers_per_hour": "31992.4604243496",
                "miles_per_hour": "19878.8707564521"
            },
            "miss_distance": {
                "astronomical": "0.0649578085",
                "lunar": "25.2685875065",
                "kilometers": "9717549.791467895",
                "miles": "6038205.445111151"
            },
            "orbiting_body": "Earth"
        }
    ],
    "orbital_data": {
        "orbit_id": "4",
        "orbit_determination_date": "2019-04-24 06:59:35",
        "first_observation_date": "2015-04-18",
        "last_observation_date": "2015-04-22",
        "data_arc_in_days": 4,
        "observations_used": 14,
        "orbit_uncertainty": "9",
        "minimum_orbit_intersection": ".030117",
        "jupiter_tisserand_invariant": "3.063",
        "epoch_osculation": "2457132.5",
        "eccentricity": ".6208184502662313",
        "semi_major_axis": "2.686109624901912",
        "inclination": "1.661079302535918",
        "ascending_node_longitude": "314.4537597735924",
        "orbital_period": "1607.992528228556",
        "perihelion_distance": "1.018523210325099",
        "perihelion_argument": "207.2840852933138",
        "aphelion_distance": "4.353696039478725",
        "perihelion_time": "2457090.076368493052",
        "mean_anomaly": "9.497872082357389",
        "mean_motion": ".2238816373087217",
        "equinox": "J2000",
        "orbit_class": {
            "orbit_class_type": "AMO",
            "orbit_class_description": "Near-Earth asteroid orbits similar to that of 1221 Amor",
            "orbit_class_range": "1.017 AU < q (perihelion) < 1.3 AU"
        }
    },
    "is_sentry_object": false
}